0 FENGYUN 1C DEB
1 31727U 99025CEA 13282.04490251  .00001760  00000-0  10177-2 0  5523
2 31727 099.0506 307.0462 0052744 069.0456 291.6183 14.09581277326370
0 FENGYUN 1C DEB
1 31727U 99025CEA 13282.05024407  .00002136  00000-0  12300-2 0  5539
2 31727 099.0474 307.0538 0051725 070.9415 316.8231 14.09586099326373
0 FENGYUN 1C DEB
1 31727U 99025CEA 13287.54197332  .00003192  00000-0  18253-2 0  5554
2 31727 099.0475 312.5727 0051531 055.5375 104.8596 14.09608412327143
0 FENGYUN 1C DEB
1 31727U 99025CEA 13291.86452694  .00002556  00000-0  14664-2 0  5565
2 31727 099.0461 316.9163 0051301 043.3982 080.2828 14.09633100327758
0 FENGYUN 1C DEB
1 31727U 99025CEA 13294.04608963  .00002979  00000-0  17043-2 0  5574
2 31727 099.0459 319.1076 0051107 037.2235 351.1199 14.09642980328062
